{
	"type": "FeatureCollection", 
	"features": [
		{
			"type": "Feature", 
			"properties": {
				"name": "Oroqen(鄂伦春族)",
				"beginTime": 1600,
				"endTime": 1860,
				"ISO3166-1-Alpha-3": "CHN", 
				"ISO3166-1-Alpha-2": "CN" 
			}, 
			"geometry": {
				"type": "Polygon", 
				"coordinates": [[[125.3664254217963, 50.16334771849959], [125.7694731775514, 50.57167744095914], [126.3962458265993, 50.39511392130517], [126.5679282190112, 49.69327342991942], [127.0127764394775, 49.26166602024499], [127.8547216591645, 48.79083931589174], [128.6422844606531, 48.79673526936671], [129.5242191593553, 48.56528849119114], [130.6290504981192, 48.50778765145743], [130.6663220948084, 48.82262104424823], [131.1073218551619, 49.20665791981234], [132.2208919066318, 50.20125435573916], [133.3144564981951, 50.62169442802071], [133.4697563847807, 50.88265228927946], [133.9215903285377, 51.18844259373494], [134.9711912357785, 51.70852049085256], [135.0988446246768, 52.01102519953405], [134.6535938355356, 52.10767370091911], [134.7087949299845, 52.58377321101204], [134.5935377770274, 52.79334243148535], [134.8472733125506, 53.10043179061567], [134.5886391463308, 53.56235227560778], [134.0577283853881, 53.44233828531467], [133.5698698836206, 53.5150832948373], [133.007697345918, 53.28531078908949], [131.6094466365416, 53.21383042799971], [131.4179316610736, 53.69052879203743], [130.4196695263822, 53.7514495741557], [127.8500493006133, 53.81836354004361], [125.8868485755652, 53.6570539212208], [123.7174004551454, 53.29667192831667], [123.2115978280912, 52.7820025596691], [122.7828323528074, 52.27647613797232], [122.7745115383046, 52.19222035766909], [122.6516845689331, 52.1298448699111], [122.76253958703, 51.78454832729887], [122.8022521187173, 51.46336188716893], [122.6576837471688, 51.29291092840311], [122.5691252971913, 50.9168588640085], [122.4771859470077, 50.77509001382734], [122.276456427759, 50.76372297059051], [122.230817987985, 50.69455479483846], [122.2677449700793, 50.52477283857471], [122.2191146022102, 50.38524251183181], [121.8708975287108, 50.32448713028414], [121.934148876392, 50.11879616694632], [121.9118286737009, 49.9480667112861], [122.4144126466799, 49.94196622594991], [122.3837090561544, 49.6894241242644], [122.093596035514, 49.49209752374242], [121.7043792711436, 49.40704456568962], [121.9681249138842, 49.24281989065415], [122.0069683613408, 49.12979927846666], [122.0511054544552, 48.95282954260843], [122.112025955468, 48.85132877802871], [122.2596991435348, 48.83680502961906], [122.4029081773887, 48.90233901570654], [122.5347689887265, 49.0149817967489], [122.7630334888992, 49.14748934822256], [123.0154494000351, 49.2813392982351], [123.2256903155297, 49.27587330176511], [123.3050039932523, 49.1606127756574], [123.4544289464778, 49.1034568867931], [123.7603524559978, 49.04253955743856], [124.3945084574919, 49.50227739459936], [124.7653897195315, 49.6930200756961], [125.2143055871995, 49.82913394314138], [125.3664254217963, 50.16334771849959]]]
			}
		},
		{
			"type": "Feature", 
			"properties": {
				"name": "Oroqen(鄂伦春族)",
				"beginTime": 1861,
				"endTime": 9146,
				"ISO3166-1-Alpha-3": "CHN", 
				"ISO3166-1-Alpha-2": "CN" 
			}, 
			"geometry": {
				"type": "MultiPolygon", 
				"coordinates": [[[[122.7828323528074, 52.27647613797232], [122.7745115383046, 52.19222035766909], [122.6516845689331, 52.1298448699111], [122.76253958703, 51.78454832729887], [122.8022521187173, 51.46336188716893], [122.6576837471688, 51.29291092840311], [122.5691252971913, 50.9168588640085], [122.4771859470077, 50.77509001382734], [122.276456427759, 50.76372297059051], [122.230817987985, 50.69455479483846], [122.2677449700793, 50.52477283857471], [122.2191146022102, 50.38524251183181], [121.8708975287108, 50.32448713028414], [121.934148876392, 50.11879616694632], [121.9118286737009, 49.9480667112861], [122.4144126466799, 49.94196622594991], [122.3837090561544, 49.6894241242644], [122.093596035514, 49.49209752374242], [121.7043792711436, 49.40704456568962], [121.9681249138842, 49.24281989065415], [122.0069683613408, 49.12979927846666], [122.0511054544552, 48.95282954260843], [122.112025955468, 48.85132877802871], [122.2596991435348, 48.83680502961906], [122.4029081773887, 48.90233901570654], [122.5347689887265, 49.0149817967489], [122.7630334888992, 49.14748934822256], [123.0154494000351, 49.2813392982351], [123.2256903155297, 49.27587330176511], [123.3050039932523, 49.1606127756574], [123.4544289464778, 49.1034568867931], [123.7603524559978, 49.04253955743856], [124.3945084574919, 49.50227739459936], [124.7653897195315, 49.6930200756961], [125.2143055871995, 49.82913394314138], [125.3819444292429, 50.18409892949391], [125.749491319156, 50.54453194503267], [126.9024455252876, 51.0636911228904], [126.8123613458994, 51.30811450419528], [126.7924551912295, 51.54642924283345], [126.5764315670721, 51.8098994811153], [126.4433626826064, 52.00797566387113], [126.3949911341946, 52.21232528627073], [126.0460823223543, 52.63289179868686], [125.8206203972852, 52.87775019595244], [125.4289498927891, 53.12012234282577], [124.9334535067736, 53.18600316946046], [124.7982189200133, 53.10379783139749], [124.2866908269634, 52.93016724634182], [123.5273189772403, 52.76223988633812], [123.1656158892339, 52.47611087710313], [122.7828323528074, 52.27647613797232]]], [[[129.4829419235095, 48.55158125349058], [130.5453111677928, 48.49515221809234], [130.5931151076, 48.48209277802007], [130.6071769371377, 48.79496809749258], [130.3056072697728, 48.85294959145462], [129.9299034983488, 49.07528043362629], [129.6201654640929, 49.23353086291226], [129.4270805402411, 49.36630036082653], [129.0667560952568, 49.41634819185124], [128.7909278304605, 49.54594594891315], [128.1618304961543, 49.56020691391986], [127.6753612706231, 49.63742510413577], [126.9211640425972, 49.65791568017039], [127.001273580743, 49.26251458681453], [127.8494899907478, 48.79582888573882], [128.6313477825421, 48.7973820582959], [129.4829419235095, 48.55158125349058]]]]
			}
		}
	]
}